start=new Date('2022-09-24T00:00:00.000Z').valueOf();
sats=[{"LAUNCH_DATE":"2021-04-29","CLASSIFICATION_TYPE":"U","PERIOD":"95.593","ELEMENT_SET_NO":"999","NORAD_CAT_ID":"48316","MEAN_MOTION_DOT":"0.00000016","APOAPSIS":"548.204","EPHEMERIS_TYPE":"0","COUNTRY_CODE":"US","BSTAR":"0.00001998000000","FILE":"3581482","CENTER_NAME":"EARTH","EPOCH":"2022-09-23T13:24:48.538368","OBJECT_TYPE":"PAYLOAD","TLE_LINE1":"1 48316U 21036AS  22266.55889512  .00000016  00000-0  19980-4 0  9993","ECCENTRICITY":"0.00013750","MEAN_MOTION_DDOT":"0.0000000000000","REV_AT_EPOCH":"7843","ARG_OF_PERICENTER":"76.7628","MEAN_ELEMENT_THEORY":"SGP4","TLE_LINE2":"2 48316  53.0563   2.0273 0001375  76.7628 283.3515 15.06387375 78436","MEAN_MOTION":"15.06387375","DECAY_DATE":null,"MEAN_ANOMALY":"283.3515","OBJECT_NAME":"STARLINK-2507","PERIAPSIS":"546.300","RA_OF_ASC_NODE":"2.0273","REF_FRAME":"TEME","GP_ID":"213307253","SEMIMAJOR_AXIS":"6925.387","SITE":"AFETR","INCLINATION":"53.0563","TIME_SYSTEM":"UTC","OBJECT_ID":"2021-036AS","RCS_SIZE":"LARGE"},{"CENTER_NAME":"EARTH","FILE":"3581681","EPOCH":"2022-09-23T16:30:34.903008","EPHEMERIS_TYPE":"0","APOAPSIS":"548.198","BSTAR":"0.00013768000000","COUNTRY_CODE":"US","NORAD_CAT_ID":"48317","ELEMENT_SET_NO":"999","MEAN_MOTION_DOT":"0.00001769","CLASSIFICATION_TYPE":"U","PERIOD":"95.593","LAUNCH_DATE":"2021-04-29","SEMIMAJOR_AXIS":"6925.375","GP_ID":"213332505","SITE":"AFETR","RCS_SIZE":"LARGE","OBJECT_ID":"2021-036AT","INCLINATION":"53.0558","TIME_SYSTEM":"UTC","RA_OF_ASC_NODE":"1.4513","PERIAPSIS":"546.282","OBJECT_NAME":"STARLINK-2513","REF_FRAME":"TEME","ARG_OF_PERICENTER":"67.8526","DECAY_DATE":null,"MEAN_ANOMALY":"292.2609","MEAN_MOTION":"15.06391325","MEAN_ELEMENT_THEORY":"SGP4","TLE_LINE2":"2 48317  53.0558   1.4513 0001383  67.8526 292.2609 15.06391325 77801","MEAN_MOTION_DDOT":"0.0000000000000","TLE_LINE1":"1 48317U 21036AT  22266.68790397  .00001769  00000-0  13768-3 0  9993","ECCENTRICITY":"0.00013830","OBJECT_TYPE":"PAYLOAD","REV_AT_EPOCH":"7780"},{"REF_FRAME":"TEME","RA_OF_ASC_NODE":"11.7981","PERIAPSIS":"546.414","OBJECT_NAME":"STARLINK-2509","RCS_SIZE":"LARGE","OBJECT_ID":"2021-036AU","INCLINATION":"53.0565","TIME_SYSTEM":"UTC","GP_ID":"213333255","SEMIMAJOR_AXIS":"6925.359","SITE":"AFETR","REV_AT_EPOCH":"7765","MEAN_MOTION_DDOT":"0.0000000000000","TLE_LINE1":"1 48318U 21036AU  22266.61325430  .00001590  00000-0  12563-3 0  9993","ECCENTRICITY":"0.00011690","OBJECT_TYPE":"PAYLOAD","MEAN_ANOMALY":"302.1285","DECAY_DATE":null,"MEAN_MOTION":"15.06396677","TLE_LINE2":"2 48318  53.0565  11.7981 0001169  57.9818 302.1285 15.06396677 77658","MEAN_ELEMENT_THEORY":"SGP4","ARG_OF_PERICENTER":"57.9818","BSTAR":"0.00012563000000","COUNTRY_CODE":"US","EPHEMERIS_TYPE":"0","APOAPSIS":"548.033","EPOCH":"2022-09-23T14:43:05.171520","CENTER_NAME":"EARTH","FILE":"3581681","PERIOD":"95.592","CLASSIFICATION_TYPE":"U","LAUNCH_DATE":"2021-04-29","MEAN_MOTION_DOT":"0.00001590","NORAD_CAT_ID":"48318","ELEMENT_SET_NO":"999"},{"REV_AT_EPOCH":"7766","MEAN_MOTION_DDOT":"0.0000000000000","TLE_LINE1":"1 48319U 21036AV  22266.67498576  .00008265  00000-0  57371-3 0  9994","OBJECT_TYPE":"PAYLOAD","ECCENTRICITY":"0.00020790","DECAY_DATE":null,"MEAN_ANOMALY":"265.5753","MEAN_MOTION":"15.06358786","MEAN_ELEMENT_THEORY":"SGP4","TLE_LINE2":"2 48319  53.0564  11.5114 0002079  94.5474 265.5753 15.06358786 77662","ARG_OF_PERICENTER":"94.5474","REF_FRAME":"TEME","RA_OF_ASC_NODE":"11.5114","PERIAPSIS":"545.900","OBJECT_NAME":"STARLINK-2512","RCS_SIZE":"LARGE","OBJECT_ID":"2021-036AV","INCLINATION":"53.0564","TIME_SYSTEM":"UTC","GP_ID":"213333507","SEMIMAJOR_AXIS":"6925.475","SITE":"AFETR","PERIOD":"95.595","CLASSIFICATION_TYPE":"U","LAUNCH_DATE":"2021-04-29","MEAN_MOTION_DOT":"0.00008265","NORAD_CAT_ID":"48319","ELEMENT_SET_NO":"999","BSTAR":"0.00057371000000","COUNTRY_CODE":"US","EPHEMERIS_TYPE":"0","APOAPSIS":"548.780","EPOCH":"2022-09-23T16:11:58.769664","CENTER_NAME":"EARTH","FILE":"3581681"},{"BSTAR":"0.00015465000000","COUNTRY_CODE":"US","EPHEMERIS_TYPE":"0","APOAPSIS":"548.368","EPOCH":"2022-09-23T16:08:00.827520","CENTER_NAME":"EARTH","FILE":"3581681","PERIOD":"95.592","CLASSIFICATION_TYPE":"U","LAUNCH_DATE":"2021-04-29","MEAN_MOTION_DOT":"0.00002023","NORAD_CAT_ID":"48320","ELEMENT_SET_NO":"999","REF_FRAME":"TEME","RA_OF_ASC_NODE":"11.5387","PERIAPSIS":"546.054","OBJECT_NAME":"STARLINK-2029","RCS_SIZE":"LARGE","OBJECT_ID":"2021-036AW","TIME_SYSTEM":"UTC","INCLINATION":"53.0550","SITE":"AFETR","GP_ID":"213333757","SEMIMAJOR_AXIS":"6925.346","REV_AT_EPOCH":"7766","MEAN_MOTION_DDOT":"0.0000000000000","OBJECT_TYPE":"PAYLOAD","TLE_LINE1":"1 48320U 21036AW  22266.67223180  .00002023  00000-0  15465-3 0  9997","ECCENTRICITY":"0.00016710","DECAY_DATE":null,"MEAN_ANOMALY":"301.7721","MEAN_MOTION":"15.06400750","TLE_LINE2":"2 48320  53.0550  11.5387 0001671  58.3431 301.7721 15.06400750 77666","MEAN_ELEMENT_THEORY":"SGP4","ARG_OF_PERICENTER":"58.3431"},{"RA_OF_ASC_NODE":"11.8481","OBJECT_NAME":"STARLINK-2457","PERIAPSIS":"546.247","REF_FRAME":"TEME","GP_ID":"213333005","SITE":"AFETR","SEMIMAJOR_AXIS":"6925.380","RCS_SIZE":"LARGE","INCLINATION":"53.0551","TIME_SYSTEM":"UTC","OBJECT_ID":"2021-036AX","MEAN_MOTION_DDOT":"0.0000000000000","OBJECT_TYPE":"PAYLOAD","TLE_LINE1":"1 48321U 21036AX  22266.60221366  .00002443  00000-0  18287-3 0  9996","ECCENTRICITY":"0.00014410","REV_AT_EPOCH":"7765","ARG_OF_PERICENTER":"57.0478","DECAY_DATE":null,"MEAN_ANOMALY":"303.0649","MEAN_ELEMENT_THEORY":"SGP4","TLE_LINE2":"2 48321  53.0551  11.8481 0001441  57.0478 303.0649 15.06389765 77653","MEAN_MOTION":"15.06389765","EPHEMERIS_TYPE":"0","APOAPSIS":"548.243","COUNTRY_CODE":"US","BSTAR":"0.00018287000000","CENTER_NAME":"EARTH","FILE":"3581681","EPOCH":"2022-09-23T14:27:11.260224","LAUNCH_DATE":"2021-04-29","PERIOD":"95.593","CLASSIFICATION_TYPE":"U","NORAD_CAT_ID":"48321","ELEMENT_SET_NO":"999","MEAN_MOTION_DOT":"0.00002443"},{"APOAPSIS":"548.213","EPHEMERIS_TYPE":"0","BSTAR":"0.00006476600000","COUNTRY_CODE":"US","FILE":"3581681","CENTER_NAME":"EARTH","EPOCH":"2022-09-23T15:57:24.102720","CLASSIFICATION_TYPE":"U","PERIOD":"95.592","LAUNCH_DATE":"2021-04-29","ELEMENT_SET_NO":"999","NORAD_CAT_ID":"48322","MEAN_MOTION_DOT":"0.00000683","PERIAPSIS":"546.219","OBJECT_NAME":"STARLINK-2477","RA_OF_ASC_NODE":"11.5675","REF_FRAME":"TEME","SEMIMAJOR_AXIS":"6925.351","GP_ID":"213332756","SITE":"AFETR","OBJECT_ID":"2021-036AY","INCLINATION":"53.0570","TIME_SYSTEM":"UTC","RCS_SIZE":"LARGE","TLE_LINE1":"1 48322U 21036AY  22266.66486230  .00000683  00000-0  64766-4 0  9994","OBJECT_TYPE":"PAYLOAD","ECCENTRICITY":"0.00014400","MEAN_MOTION_DDOT":"0.0000000000000","REV_AT_EPOCH":"7766","ARG_OF_PERICENTER":"79.3616","MEAN_MOTION":"15.06399218","MEAN_ELEMENT_THEORY":"SGP4","TLE_LINE2":"2 48322  53.0570  11.5675 0001440  79.3616 280.7535 15.06399218 77667","MEAN_ANOMALY":"280.7535","DECAY_DATE":null},{"PERIOD":"95.593","CLASSIFICATION_TYPE":"U","LAUNCH_DATE":"2021-04-29","ELEMENT_SET_NO":"999","NORAD_CAT_ID":"48323","MEAN_MOTION_DOT":"-0.00000096","APOAPSIS":"548.227","EPHEMERIS_TYPE":"0","BSTAR":"0.00001242300000","COUNTRY_CODE":"US","FILE":"3581681","CENTER_NAME":"EARTH","EPOCH":"2022-09-23T15:52:06.395232","ECCENTRICITY":"0.00014140","TLE_LINE1":"1 48323U 21036AZ  22266.66118513 -.00000096  00000-0  12423-4 0  9993","OBJECT_TYPE":"PAYLOAD","MEAN_MOTION_DDOT":"0.0000000000000","REV_AT_EPOCH":"7766","ARG_OF_PERICENTER":"70.6326","MEAN_MOTION":"15.06388891","MEAN_ELEMENT_THEORY":"SGP4","TLE_LINE2":"2 48323  53.0563  11.5721 0001414  70.6326 289.4816 15.06388891 77668","DECAY_DATE":null,"MEAN_ANOMALY":"289.4816","PERIAPSIS":"546.268","OBJECT_NAME":"STARLINK-2515","RA_OF_ASC_NODE":"11.5721","REF_FRAME":"TEME","GP_ID":"213334007","SEMIMAJOR_AXIS":"6925.383","SITE":"AFETR","OBJECT_ID":"2021-036AZ","INCLINATION":"53.0563","TIME_SYSTEM":"UTC","RCS_SIZE":"LARGE"},{"NORAD_CAT_ID":"48324","ELEMENT_SET_NO":"999","MEAN_MOTION_DOT":"0.00000626","PERIOD":"95.593","CLASSIFICATION_TYPE":"U","LAUNCH_DATE":"2021-04-29","CENTER_NAME":"EARTH","FILE":"3581498","EPOCH":"2022-09-23T14:09:51.519168","EPHEMERIS_TYPE":"0","APOAPSIS":"547.909","BSTAR":"0.00006094200000","COUNTRY_CODE":"US","ARG_OF_PERICENTER":"90.2140","DECAY_DATE":null,"MEAN_ANOMALY":"269.8953","MEAN_MOTION":"15.06379014","MEAN_ELEMENT_THEORY":"SGP4","TLE_LINE2":"2 48324  53.0573  11.8755 0000911  90.2140 269.8953 15.06379014 78249","MEAN_MOTION_DDOT":"0.0000000000000","OBJECT_TYPE":"PAYLOAD","TLE_LINE1":"1 48324U 21036BA  22266.59017962  .00000626  00000-0  60942-4 0  9999","ECCENTRICITY":"0.00009110","REV_AT_EPOCH":"7824","SEMIMAJOR_AXIS":"6925.413","GP_ID":"213308315","SITE":"AFETR","RCS_SIZE":"LARGE","OBJECT_ID":"2021-036BA","INCLINATION":"53.0573","TIME_SYSTEM":"UTC","RA_OF_ASC_NODE":"11.8755","PERIAPSIS":"546.647","OBJECT_NAME":"STARLINK-2527","REF_FRAME":"TEME"},{"APOAPSIS":"548.206","EPHEMERIS_TYPE":"0","BSTAR":"0.00002730400000","COUNTRY_CODE":"US","FILE":"3581498","CENTER_NAME":"EARTH","EPOCH":"2022-09-23T17:17:01.884480","PERIOD":"95.593","CLASSIFICATION_TYPE":"U","LAUNCH_DATE":"2021-04-29","ELEMENT_SET_NO":"999","NORAD_CAT_ID":"48325","MEAN_MOTION_DOT":"0.00000125","PERIAPSIS":"546.280","OBJECT_NAME":"STARLINK-2495","RA_OF_ASC_NODE":"11.3232","REF_FRAME":"TEME","GP_ID":"213307936","SITE":"AFETR","SEMIMAJOR_AXIS":"6925.378","OBJECT_ID":"2021-036BB","INCLINATION":"53.0544","TIME_SYSTEM":"UTC","RCS_SIZE":"LARGE","TLE_LINE1":"1 48325U 21036BB  22266.72016070  .00000125  00000-0  27304-4 0  9993","OBJECT_TYPE":"PAYLOAD","ECCENTRICITY":"0.00013910","MEAN_MOTION_DDOT":"0.0000000000000","REV_AT_EPOCH":"7826","ARG_OF_PERICENTER":"66.1056","MEAN_MOTION":"15.06390427","TLE_LINE2":"2 48325  53.0544  11.3232 0001391  66.1056 294.0078 15.06390427 78265","MEAN_ELEMENT_THEORY":"SGP4","MEAN_ANOMALY":"294.0078","DECAY_DATE":null}];
